0 EO 1
1 26619U 00075A   13282.48108991  .00000092  00000-0  26795-4 0  9042
2 26619 098.0174 341.6754 0010886 050.1110 310.1035 14.63067013686505
0 EO 1
1 26619U 00075A   13282.82304222 -.00000956  00000-0 -17724-3 0  9058
2 26619 098.0181 342.0083 0010915 049.3628 310.8469 14.63064346686559
0 EO 1
1 26619U 00075A   13283.16499469  .00000071  00000-0  22828-4 0  9063
2 26619 098.0190 342.3410 0010903 048.1526 312.0618 14.63066949686604
0 EO 1
1 26619U 00075A   13283.37016564  .00000367  00000-0  80458-4 0  9079
2 26619 098.0194 342.5402 0010898 047.5555 312.6584 14.63067775686638
0 EO 1
1 26619U 00075A   13283.57533628  .00000906  00000-0  18542-3 0  9079
2 26619 098.0190 342.7394 0010911 046.5538 313.6586 14.63069268686667
0 EO 1
1 26619U 00075A   13283.84889707 -.00000797  00000-0 -14617-3 0  9081
2 26619 098.0189 343.0049 0010930 046.3519 313.8495 14.63065253686700
0 EO 1
1 26619U 00075A   13284.19085004  .00001555  00000-0  31170-3 0  9093
2 26619 098.0186 343.3366 0010822 045.0500 315.1644 14.63070914686754
0 EO 1
1 26619U 00075A   13284.46440904  .00001683  00000-0  33660-3 0  9107
2 26619 098.0188 343.6030 0010754 044.0567 316.1467 14.63071797686791
0 EO 1
1 26619U 00075A   13285.49026278  .00000757  00000-0  15626-3 0  9131
2 26619 098.0175 344.5994 0010829 040.8091 319.3906 14.63072014686948
0 EO 1
1 26619U 00075A   13285.83221461 -.00000907  00000-0 -16760-3 0  9140
2 26619 098.0177 344.9317 0010841 039.7841 320.4118 14.63068351686999
0 EO 1
1 26619U 00075A   13286.17416639  .00000001  00000-0  91234-5 0  9156
2 26619 098.0176 345.2650 0010936 038.4741 321.7255 14.63070432687048
0 EO 1
1 26619U 00075A   13286.51611754 -.00000889  00000-0 -16414-3 0  9161
2 26619 098.0178 345.5970 0010940 037.4657 322.7304 14.63068893687097
0 EO 1
1 26619U 00075A   13286.85806909 -.00001153  00000-0 -21557-3 0  9176
2 26619 098.0179 345.9299 0010955 036.3767 323.8155 14.63067441687142
0 EO 1
1 26619U 00075A   13287.20001871  .00001860  00000-0  37103-3 0  9189
2 26619 098.0185 346.2616 0010853 035.2846 324.9096 14.63074385687195
0 EO 1
1 26619U 00075A   13287.54196859  .00001632  00000-0  32660-3 0  9198
2 26619 098.0186 346.5940 0010784 034.3453 325.8453 14.63075035687242
0 EO 1
1 26619U 00075A   13287.88391891  .00000103  00000-0  29006-4 0  9203
2 26619 098.0186 346.9262 0010763 033.3010 326.8804 14.63071804687294
0 EO 1
1 26619U 00075A   13288.22587040  .00000559  00000-0  11770-3 0  9219
2 26619 098.0185 347.2585 0010740 032.2454 327.9428 14.63073690687345
0 EO 1
1 26619U 00075A   13288.49943032  .00000148  00000-0  37750-4 0  9227
2 26619 098.0186 347.5245 0010722 031.6858 328.4996 14.63073434687389
0 EO 1
1 26619U 00075A   13288.90977037 -.00000009  00000-0  71348-5 0  9235
2 26619 098.0191 347.9234 0010670 031.4033 328.7748 14.63072281687446
0 EO 1
1 26619U 00075A   13289.18333107  .00001337  00000-0  26925-3 0  9244
2 26619 098.0182 348.1897 0010595 030.8468 329.3404 14.63076284687482
0 EO 1
1 26619U 00075A   13289.52527998  .00000497  00000-0  10573-3 0  9254
2 26619 098.0184 348.5226 0010456 030.0620 330.1180 14.63075502687531
0 EO 1
1 26619U 00075A   13289.86723044 -.00000416  00000-0 -72115-4 0  9266
2 26619 098.0181 348.8552 0010353 029.9741 330.2032 14.63073170687581
0 EO 1
1 26619U 00075A   13290.20918012  .00001742  00000-0  34808-3 0  9275
2 26619 098.0179 349.1879 0010401 028.6673 331.5137 14.63078433687631
0 EO 1
1 26619U 00075A   13290.34595907  .00001671  00000-0  33428-3 0  9283
2 26619 098.0178 349.3210 0010401 028.1780 331.9980 14.63078709687653
0 EO 1
1 26619U 00075A   13290.68790807  .00001350  00000-0  27171-3 0  9299
2 26619 098.0176 349.6533 0010405 026.9636 333.2095 14.63079317687706
0 EO 1
1 26619U 00075A   13290.89307765  .00001064  00000-0  21607-3 0  9301
2 26619 098.0174 349.8525 0010352 026.5506 333.6181 14.63078276687736
0 EO 1
1 26619U 00075A   13291.23502798  .00000312  00000-0  69702-4 0  9318
2 26619 098.0179 350.1857 0010356 025.6619 334.5092 14.63077657687781
0 EO 1
1 26619U 00075A   13291.50858792 -.00000587  00000-0 -10535-3 0  9322
2 26619 098.0176 350.4510 0010420 024.7426 335.4272 14.63076311687826
0 EO 1
1 26619U 00075A   13291.85053868 -.00001056  00000-0 -19662-3 0  9334
2 26619 098.0178 350.7835 0010478 023.0585 337.1105 14.63074508687877
0 EO 1
1 26619U 00075A   13292.19248653  .00001228  00000-0  24794-3 0  9342
2 26619 098.0190 351.1155 0010346 021.6665 338.5008 14.63079911687924
0 EO 1
1 26619U 00075A   13292.53443441  .00001782  00000-0  35581-3 0  9354
2 26619 098.0197 351.4481 0010292 020.3020 339.8597 14.63081784687970
0 EO 1
1 26619U 00075A   13292.87638304 -.00000087  00000-0 -80124-5 0  9360
2 26619 098.0189 351.7797 0010246 019.0075 341.1449 14.63078255688026
0 EO 1
1 26619U 00075A   13293.21833250  .00001130  00000-0  22892-3 0  9371
2 26619 098.0187 352.1120 0010330 017.6136 342.5451 14.63081881688077
0 EO 1
1 26619U 00075A   13293.49189055  .00000244  00000-0  56542-4 0  9384
2 26619 098.0191 352.3780 0010339 016.4844 343.6671 14.63080921688113
0 EO 1
1 26619U 00075A   13293.83383980 -.00001237  00000-0 -23185-3 0  9397
2 26619 098.0185 352.7103 0010212 016.2878 343.8592 14.63077234688166
0 EO 1
1 26619U 00075A   13294.17578892  .00000122  00000-0  32708-4 0  9407
2 26619 098.0173 353.0427 0010256 014.9002 345.2509 14.63080598688215
0 EO 1
1 26619U 00075A   13294.51773716  .00000644  00000-0  13437-3 0  9414
2 26619 098.0165 353.3754 0010154 013.9070 346.2419 14.63081850688261
0 EO 1
1 26619U 00075A   13294.85968516  .00000361  00000-0  79230-4 0  9426
2 26619 098.0165 353.7079 0010223 013.1291 347.0124 14.63081149688318
0 EO 1
1 26619U 00075A   13295.20163331  .00002357  00000-0  46762-3 0  9439
2 26619 098.0158 354.0403 0010325 011.9965 348.1489 14.63086258688369
0 EO 1
1 26619U 00075A   13295.54358079  .00001403  00000-0  28203-3 0  9443
2 26619 098.0156 354.3724 0010267 011.2384 348.9044 14.63086009688414
0 EO 1
1 26619U 00075A   13295.81714074 -.00001276  00000-0 -23943-3 0  9451
2 26619 098.0153 354.6380 0010348 009.8591 350.2768 14.63079543688453
0 EO 1
1 26619U 00075A   13296.22747869  .00000096  00000-0  27636-4 0  9467
2 26619 098.0157 355.0365 0010070 008.4635 351.6782 14.63082976688513
